; Full-Coverage Path — generated by point_cloud_processor
; Total points: 265

G21
G90
G28

G1 X471.856 Y170.595 Z385.708 F500
G1 X471.856 Y170.595 Z385.708 F500
G1 X476.197 Y170.739 Z386.431 F500
G1 X481.122 Y170.748 Z387.307 F500
G1 X484.704 Y170.892 Z388.011 F500
G1 X488.837 Y171.080 Z388.887 F500
G1 X492.909 Y171.308 Z389.846 F500
G1 X496.902 Y171.503 Z390.764 F500
G1 X501.002 Y171.670 Z391.524 F500
G1 X505.041 Y171.864 Z392.184 F500
G1 X509.088 Y172.057 Z392.841 F500
G1 X513.217 Y172.140 Z393.326 F500
G1 X517.311 Y172.313 Z394.021 F500
G1 X521.417 Y172.489 Z394.682 F500
G1 X525.568 Y172.686 Z395.254 F500
G1 X529.725 Y172.793 Z395.621 F500
G1 X533.902 Y172.878 Z395.884 F500
G1 X538.113 Y172.911 Z395.979 F500
G1 X542.317 Y172.953 Z396.068 F500
G1 X546.551 Y173.004 Z396.200 F500
G1 X550.766 Y173.133 Z396.503 F500
G1 X554.997 Y173.210 Z396.724 F500
G1 X559.239 Y173.267 Z396.891 F500
G1 X563.487 Y173.181 Z396.642 F500
G1 X567.695 Y173.101 Z396.429 F500
G1 X571.915 Y173.062 Z396.326 F500
G1 X576.118 Y172.997 Z396.161 F500
G1 X580.313 Y172.886 Z395.878 F500
G1 X584.469 Y172.765 Z395.531 F500
G1 X588.578 Y172.639 Z395.114 F500
G1 X592.606 Y172.449 Z394.528 F500
G1 X596.529 Y172.202 Z393.855 F500
G1 X600.464 Y171.881 Z393.094 F500
G1 X604.205 Y171.465 Z392.110 F500
G1 X607.956 Y171.089 Z391.169 F500
G1 X611.462 Y170.734 Z390.056 F500
G1 X614.454 Y169.927 Z389.384 F500
G1 X616.871 Y168.525 Z388.890 F500
G1 X618.976 Y166.747 Z388.503 F500
G1 X620.442 Y164.462 Z388.458 F500
G1 X621.602 Y161.775 Z388.651 F500
G1 X622.207 Y158.583 Z389.097 F500
G1 X622.485 Y154.744 Z389.943 F500
G1 X622.772 Y150.927 Z390.511 F500
G1 X622.675 Y147.646 Z391.158 F500
G1 X622.011 Y144.829 Z392.045 F500
G1 X621.005 Y142.723 Z393.258 F500
G1 X619.346 Y141.145 Z394.527 F500
G1 X617.003 Y140.091 Z395.912 F500
G1 X614.054 Y139.813 Z397.198 F500
G1 X610.425 Y139.882 Z398.254 F500
G1 X606.583 Y140.046 Z399.362 F500
G1 X602.538 Y140.228 Z400.531 F500
G1 X598.413 Y140.361 Z401.571 F500
G1 X594.251 Y140.446 Z402.497 F500
G1 X589.953 Y140.465 Z402.983 F500
G1 X585.668 Y140.538 Z403.469 F500
G1 X581.401 Y140.629 Z404.011 F500
G1 X576.994 Y140.750 Z404.525 F500
G1 X572.628 Y140.876 Z405.012 F500
G1 X568.244 Y141.023 Z405.486 F500
G1 X563.719 Y141.066 Z405.621 F500
G1 X559.256 Y141.086 Z405.590 F500
G1 X554.804 Y141.025 Z405.471 F500
G1 X550.274 Y140.935 Z405.191 F500
G1 X545.855 Y140.851 Z404.852 F500
G1 X541.481 Y140.770 Z404.569 F500
G1 X537.159 Y140.662 Z404.100 F500
G1 X532.924 Y140.582 Z403.522 F500
G1 X528.684 Y140.467 Z402.751 F500
G1 X524.403 Y140.405 Z402.090 F500
G1 X520.194 Y140.352 Z401.571 F500
G1 X516.067 Y140.246 Z400.846 F500
G1 X511.948 Y140.137 Z400.080 F500
G1 X507.845 Y139.960 Z399.120 F500
G1 X503.713 Y139.812 Z398.263 F500
G1 X499.625 Y139.685 Z397.450 F500
G1 X495.489 Y139.578 Z396.923 F500
G1 X491.383 Y139.464 Z396.289 F500
G1 X487.281 Y139.347 Z395.554 F500
G1 X483.193 Y139.247 Z394.799 F500
G1 X479.112 Y139.149 Z394.022 F500
G1 X475.604 Y138.470 Z393.396 F500
G1 X472.836 Y137.390 Z392.955 F500
G1 X470.941 Y136.041 Z392.720 F500
G1 X469.991 Y133.637 Z392.810 F500
G1 X469.655 Y130.757 Z393.049 F500
G1 X471.144 Y128.520 Z393.608 F500
G1 X472.486 Y122.780 Z394.476 F500
G1 X472.696 Y118.644 Z394.927 F500
G1 X473.139 Y114.881 Z395.385 F500
G1 X473.281 Y113.671 Z395.532 F500
G1 X472.874 Y106.918 Z396.002 F500
G1 X474.275 Y106.911 Z396.372 F500
G1 X476.140 Y105.637 Z396.977 F500
G1 X478.874 Y105.499 Z397.710 F500
G1 X482.289 Y105.739 Z398.602 F500
G1 X486.260 Y105.844 Z399.642 F500
G1 X490.320 Y105.935 Z400.650 F500
G1 X494.424 Y106.017 Z401.618 F500
G1 X498.558 Y106.089 Z402.504 F500
G1 X502.741 Y106.146 Z403.287 F500
G1 X506.957 Y106.183 Z404.047 F500
G1 X511.184 Y106.231 Z404.747 F500
G1 X515.443 Y106.278 Z405.403 F500
G1 X519.701 Y106.320 Z406.021 F500
G1 X523.968 Y106.344 Z406.576 F500
G1 X528.297 Y106.383 Z407.094 F500
G1 X532.613 Y106.422 Z407.558 F500
G1 X536.919 Y106.473 Z407.984 F500
G1 X541.382 Y106.505 Z408.391 F500
G1 X545.941 Y106.545 Z408.708 F500
G1 X550.378 Y106.622 Z409.020 F500
G1 X554.902 Y106.700 Z409.104 F500
G1 X559.536 Y106.559 Z408.948 F500
G1 X564.097 Y106.406 Z408.873 F500
G1 X568.777 Y106.228 Z408.776 F500
G1 X573.285 Y106.013 Z408.533 F500
G1 X577.597 Y105.776 Z407.971 F500
G1 X582.089 Y105.556 Z407.294 F500
G1 X586.467 Y105.348 Z406.469 F500
G1 X590.804 Y105.363 Z405.785 F500
G1 X595.242 Y105.409 Z405.061 F500
G1 X599.433 Y105.478 Z404.147 F500
G1 X603.606 Y105.546 Z402.912 F500
G1 X607.640 Y105.591 Z401.397 F500
G1 X611.344 Y105.620 Z399.706 F500
G1 X614.990 Y105.681 Z398.053 F500
G1 X617.863 Y105.210 Z396.686 F500
G1 X620.112 Y103.908 Z395.413 F500
G1 X621.807 Y102.067 Z394.156 F500
G1 X622.857 Y99.532 Z392.973 F500
G1 X623.730 Y96.587 Z392.393 F500
G1 X624.581 Y93.042 Z392.452 F500
G1 X624.790 Y89.014 Z392.698 F500
G1 X624.861 Y84.489 Z392.638 F500
G1 X624.297 Y81.027 Z392.381 F500
G1 X623.101 Y78.137 Z392.207 F500
G1 X621.527 Y75.818 Z392.579 F500
G1 X619.497 Y73.848 Z393.268 F500
G1 X616.978 Y72.424 Z394.393 F500
G1 X614.002 Y71.502 Z395.851 F500
G1 X610.510 Y71.291 Z397.313 F500
G1 X606.740 Y71.072 Z398.761 F500
G1 X602.863 Y70.908 Z399.737 F500
G1 X598.824 Y70.673 Z400.890 F500
G1 X594.799 Y70.513 Z402.011 F500
G1 X590.671 Y70.361 Z403.148 F500
G1 X586.368 Y70.204 Z404.133 F500
G1 X582.104 Y70.059 Z404.964 F500
G1 X577.635 Y69.915 Z405.701 F500
G1 X573.094 Y69.764 Z406.260 F500
G1 X568.671 Y69.652 Z406.672 F500
G1 X564.081 Y69.491 Z406.933 F500
G1 X559.672 Y69.336 Z407.118 F500
G1 X555.186 Y69.347 Z407.181 F500
G1 X550.647 Y69.394 Z407.240 F500
G1 X546.217 Y69.461 Z407.232 F500
G1 X541.794 Y69.596 Z407.239 F500
G1 X537.383 Y69.779 Z406.961 F500
G1 X533.019 Y69.996 Z406.648 F500
G1 X528.570 Y70.263 Z406.299 F500
G1 X524.292 Y70.388 Z405.927 F500
G1 X519.971 Y70.569 Z405.532 F500
G1 X515.715 Y70.738 Z405.102 F500
G1 X511.457 Y70.864 Z404.599 F500
G1 X507.244 Y70.984 Z403.978 F500
G1 X502.900 Y71.078 Z403.427 F500
G1 X498.600 Y71.123 Z402.836 F500
G1 X494.305 Y71.164 Z402.345 F500
G1 X490.112 Y71.161 Z401.378 F500
G1 X486.026 Y71.204 Z400.195 F500
G1 X482.051 Y71.305 Z398.816 F500
G1 X478.049 Y71.446 Z397.475 F500
G1 X474.727 Y70.922 Z396.616 F500
G1 X472.071 Y69.923 Z395.813 F500
G1 X470.082 Y68.380 Z394.821 F500
G1 X468.751 Y66.055 Z393.851 F500
G1 X468.144 Y63.143 Z392.643 F500
G1 X468.164 Y59.937 Z391.250 F500
G1 X468.437 Y55.631 Z390.512 F500
G1 X468.455 Y51.426 Z390.130 F500
G1 X468.887 Y47.722 Z390.030 F500
G1 X469.990 Y44.579 Z389.858 F500
G1 X471.494 Y42.160 Z390.029 F500
G1 X473.528 Y40.371 Z390.439 F500
G1 X476.287 Y39.005 Z391.069 F500
G1 X479.600 Y38.268 Z391.943 F500
G1 X483.509 Y38.132 Z392.782 F500
G1 X487.490 Y37.949 Z393.666 F500
G1 X491.464 Y37.731 Z394.630 F500
G1 X495.521 Y37.501 Z395.485 F500
G1 X499.638 Y37.295 Z396.311 F500
G1 X503.743 Y37.148 Z396.866 F500
G1 X507.999 Y36.957 Z397.488 F500
G1 X512.222 Y36.724 Z398.140 F500
G1 X516.473 Y36.467 Z398.882 F500
G1 X520.814 Y36.328 Z399.345 F500
G1 X525.022 Y36.328 Z399.299 F500
G1 X529.367 Y36.449 Z398.991 F500
G1 X533.761 Y36.509 Z398.917 F500
G1 X537.935 Y36.413 Z399.496 F500
G1 X542.222 Y36.482 Z399.573 F500
G1 X546.388 Y36.562 Z399.574 F500
G1 X550.753 Y36.580 Z399.320 F500
G1 X555.113 Y36.600 Z399.255 F500
G1 X559.367 Y36.592 Z399.285 F500
G1 X563.699 Y36.609 Z398.927 F500
G1 X567.966 Y36.649 Z398.603 F500
G1 X572.266 Y36.721 Z398.185 F500
G1 X576.515 Y36.862 Z397.649 F500
G1 X580.715 Y37.034 Z397.076 F500
G1 X584.845 Y37.276 Z396.281 F500
G1 X588.912 Y37.525 Z395.447 F500
G1 X592.917 Y37.764 Z394.646 F500
G1 X596.823 Y37.953 Z393.682 F500
G1 X600.687 Y38.013 Z392.582 F500
G1 X604.559 Y38.111 Z391.178 F500
G1 X608.429 Y38.147 Z389.842 F500
G1 X612.220 Y38.243 Z388.359 F500
G1 X615.133 Y37.677 Z387.259 F500
G1 X617.334 Y36.807 Z386.609 F500
G1 X618.711 Y35.526 Z386.192 F500
G1 X619.172 Y33.851 Z386.028 F500
G1 X618.643 Y31.585 Z385.902 F500
G1 X617.129 Y28.954 Z385.670 F500
G1 X614.737 Y25.837 Z385.592 F500
G1 X612.528 Y22.819 Z385.405 F500
G1 X610.222 Y19.427 Z385.129 F500
G1 X607.821 Y16.169 Z384.625 F500
G1 X605.164 Y13.431 Z384.157 F500
G1 X602.288 Y11.113 Z384.053 F500
G1 X599.186 Y9.258 Z384.127 F500
G1 X595.797 Y7.659 Z384.293 F500
G1 X592.176 Y6.589 Z384.627 F500
G1 X588.299 Y6.122 Z385.097 F500
G1 X584.266 Y5.990 Z385.753 F500
G1 X579.955 Y5.910 Z386.506 F500
G1 X575.668 Y5.804 Z386.902 F500
G1 X571.619 Y5.723 Z387.215 F500
G1 X567.601 Y5.731 Z387.489 F500
G1 X563.694 Y5.472 Z388.586 F500
G1 X559.543 Y5.179 Z389.492 F500
G1 X555.235 Y5.222 Z389.461 F500
G1 X551.251 Y5.283 Z389.069 F500
G1 X547.140 Y5.253 Z388.606 F500
G1 X542.900 Y5.074 Z388.816 F500
G1 X538.719 Y4.826 Z389.365 F500
G1 X534.387 Y4.771 Z389.964 F500
G1 X530.063 Y4.862 Z389.579 F500
G1 X526.069 Y4.994 Z389.031 F500
G1 X522.123 Y4.883 Z389.231 F500
G1 X518.099 Y4.913 Z389.199 F500
G1 X513.880 Y5.131 Z388.725 F500
G1 X509.846 Y5.308 Z388.023 F500
G1 X505.868 Y5.446 Z387.243 F500
G1 X501.711 Y5.546 Z386.655 F500
G1 X497.564 Y5.635 Z386.094 F500
G1 X493.337 Y5.803 Z385.578 F500
G1 X489.182 Y5.940 Z385.029 F500
G1 X485.067 Y6.045 Z384.463 F500
G1 X481.108 Y6.117 Z383.883 F500
G1 X476.781 Y6.206 Z383.230 F500
G1 X472.919 Y6.054 Z382.609 F500
G1 X469.698 Y5.855 Z382.084 F500

M2 ; end
